{
 "generated_at": "2026-06-26T08:30:21Z",
 "sources": [
  {
   "name": "CelesTrak",
   "url": "https://celestrak.org/NORAD/elements/",
   "license": "frei verfügbar; Attribution. Ursprünglich USSPACECOM/Space-Track."
  },
  {
   "name": "GCAT (J. McDowell, planet4589.org)",
   "url": "https://planet4589.org/space/gcat/",
   "license": "CC-BY 4.0"
  }
 ],
 "satellites": [
  {
   "norad": 63205,
   "name": "QPS-SAR-9 (SUSANOO-I)",
   "intl": "2025-050A",
   "group": "sar",
   "gcat": {
    "class": "B",
    "category": "IMG-R",
    "owner": "QPS",
    "state": "J"
   },
   "omm": {
    "OBJECT_NAME": "QPS-SAR-9 (SUSANOO-I)",
    "OBJECT_ID": "2025-050A",
    "EPOCH": "2026-06-26T03:43:21.015840",
    "MEAN_MOTION": 15.03221042,
    "ECCENTRICITY": 0.0005176,
    "INCLINATION": 42.0203,
    "RA_OF_ASC_NODE": 52.6797,
    "ARG_OF_PERICENTER": 226.0605,
    "MEAN_ANOMALY": 133.9795,
    "EPHEMERIS_TYPE": 0,
    "CLASSIFICATION_TYPE": "U",
    "NORAD_CAT_ID": 63205,
    "ELEMENT_SET_NO": 999,
    "REV_AT_EPOCH": 7031,
    "BSTAR": 0.00041251,
    "MEAN_MOTION_DOT": 0.00005494,
    "MEAN_MOTION_DDOT": 0
   }
  },
  {
   "norad": 32382,
   "name": "RADARSAT-2",
   "intl": "2007-061A",
   "group": "resource",
   "gcat": {
    "class": "C",
    "category": "IMG-R",
    "owner": "CSA",
    "state": "CA"
   },
   "omm": {
    "OBJECT_NAME": "RADARSAT-2",
    "OBJECT_ID": "2007-061A",
    "EPOCH": "2026-06-26T03:12:59.734080",
    "MEAN_MOTION": 14.2998328,
    "ECCENTRICITY": 0.0001293,
    "INCLINATION": 98.578,
    "RA_OF_ASC_NODE": 183.9384,
    "ARG_OF_PERICENTER": 83.9938,
    "MEAN_ANOMALY": 276.1392,
    "EPHEMERIS_TYPE": 0,
    "CLASSIFICATION_TYPE": "U",
    "NORAD_CAT_ID": 32382,
    "ELEMENT_SET_NO": 999,
    "REV_AT_EPOCH": 96723,
    "BSTAR": 0.000021401,
    "MEAN_MOTION_DOT": 1.2e-7,
    "MEAN_MOTION_DDOT": 0
   }
  },
  {
   "norad": 37791,
   "name": "RASAT",
   "intl": "2011-044D",
   "group": "resource",
   "gcat": {
    "class": null,
    "category": null,
    "owner": null,
    "state": null
   },
   "omm": {
    "OBJECT_NAME": "RASAT",
    "OBJECT_ID": "2011-044D",
    "EPOCH": "2026-06-26T05:46:19.379712",
    "MEAN_MOTION": 14.68174462,
    "ECCENTRICITY": 0.0020831,
    "INCLINATION": 98.0576,
    "RA_OF_ASC_NODE": 268.4994,
    "ARG_OF_PERICENTER": 160.0065,
    "MEAN_ANOMALY": 254.676,
    "EPHEMERIS_TYPE": 0,
    "CLASSIFICATION_TYPE": "U",
    "NORAD_CAT_ID": 37791,
    "ELEMENT_SET_NO": 999,
    "REV_AT_EPOCH": 79451,
    "BSTAR": 0.00011161,
    "MEAN_MOTION_DOT": 0.00000595,
    "MEAN_MOTION_DDOT": 0
   }
  },
  {
   "norad": 44322,
   "name": "RCM-1",
   "intl": "2019-033A",
   "group": "sar",
   "gcat": {
    "class": "C",
    "category": "IMG-R",
    "owner": "CSA",
    "state": "CA"
   },
   "omm": {
    "OBJECT_NAME": "RCM-1",
    "OBJECT_ID": "2019-033A",
    "EPOCH": "2026-06-25T18:47:00.583296",
    "MEAN_MOTION": 14.92589305,
    "ECCENTRICITY": 0.0001499,
    "INCLINATION": 97.76,
    "RA_OF_ASC_NODE": 184.1067,
    "ARG_OF_PERICENTER": 88.6309,
    "MEAN_ANOMALY": 271.5082,
    "EPHEMERIS_TYPE": 0,
    "CLASSIFICATION_TYPE": "U",
    "NORAD_CAT_ID": 44322,
    "ELEMENT_SET_NO": 999,
    "REV_AT_EPOCH": 38336,
    "BSTAR": 0.0000085294,
    "MEAN_MOTION_DOT": 3.2e-7,
    "MEAN_MOTION_DDOT": 0
   }
  },
  {
   "norad": 44324,
   "name": "RCM-2",
   "intl": "2019-033C",
   "group": "sar",
   "gcat": {
    "class": "C",
    "category": "IMG-R",
    "owner": "CSA",
    "state": "CA"
   },
   "omm": {
    "OBJECT_NAME": "RCM-2",
    "OBJECT_ID": "2019-033C",
    "EPOCH": "2026-06-26T00:41:09.367296",
    "MEAN_MOTION": 14.92590035,
    "ECCENTRICITY": 0.000151,
    "INCLINATION": 97.7599,
    "RA_OF_ASC_NODE": 184.3938,
    "ARG_OF_PERICENTER": 90.2789,
    "MEAN_ANOMALY": 269.8603,
    "EPHEMERIS_TYPE": 0,
    "CLASSIFICATION_TYPE": "U",
    "NORAD_CAT_ID": 44324,
    "ELEMENT_SET_NO": 999,
    "REV_AT_EPOCH": 38340,
    "BSTAR": 0.000090721,
    "MEAN_MOTION_DOT": 0.00000877,
    "MEAN_MOTION_DDOT": 0
   }
  },
  {
   "norad": 44323,
   "name": "RCM-3",
   "intl": "2019-033B",
   "group": "sar",
   "gcat": {
    "class": "C",
    "category": "IMG-R",
    "owner": "CSA",
    "state": "CA"
   },
   "omm": {
    "OBJECT_NAME": "RCM-3",
    "OBJECT_ID": "2019-033B",
    "EPOCH": "2026-06-26T03:22:14.690784",
    "MEAN_MOTION": 14.92588565,
    "ECCENTRICITY": 0.0001571,
    "INCLINATION": 97.7599,
    "RA_OF_ASC_NODE": 184.5536,
    "ARG_OF_PERICENTER": 90.7525,
    "MEAN_ANOMALY": 269.3874,
    "EPHEMERIS_TYPE": 0,
    "CLASSIFICATION_TYPE": "U",
    "NORAD_CAT_ID": 44323,
    "ELEMENT_SET_NO": 999,
    "REV_AT_EPOCH": 38343,
    "BSTAR": -0.00001825,
    "MEAN_MOTION_DOT": -0.00000243,
    "MEAN_MOTION_DDOT": 0
   }
  },
  {
   "norad": 37387,
   "name": "RESOURCESAT-2",
   "intl": "2011-015A",
   "group": "resource",
   "gcat": {
    "class": null,
    "category": "IMG",
    "owner": "ISRO",
    "state": "IN"
   },
   "omm": {
    "OBJECT_NAME": "RESOURCESAT-2",
    "OBJECT_ID": "2011-015A",
    "EPOCH": "2026-06-26T04:02:29.753088",
    "MEAN_MOTION": 14.21601872,
    "ECCENTRICITY": 0.0010494,
    "INCLINATION": 98.7641,
    "RA_OF_ASC_NODE": 244.5481,
    "ARG_OF_PERICENTER": 227.0699,
    "MEAN_ANOMALY": 132.9599,
    "EPHEMERIS_TYPE": 0,
    "CLASSIFICATION_TYPE": "U",
    "NORAD_CAT_ID": 37387,
    "ELEMENT_SET_NO": 999,
    "REV_AT_EPOCH": 78745,
    "BSTAR": 0.000061151,
    "MEAN_MOTION_DOT": 9e-7,
    "MEAN_MOTION_DDOT": 0
   }
  },
  {
   "norad": 41877,
   "name": "RESOURCESAT-2A",
   "intl": "2016-074A",
   "group": "resource",
   "gcat": {
    "class": "C",
    "category": "IMG",
    "owner": "ISRO",
    "state": "IN"
   },
   "omm": {
    "OBJECT_NAME": "RESOURCESAT-2A",
    "OBJECT_ID": "2016-074A",
    "EPOCH": "2026-06-26T05:17:28.116384",
    "MEAN_MOTION": 14.21618588,
    "ECCENTRICITY": 0.0003214,
    "INCLINATION": 98.7527,
    "RA_OF_ASC_NODE": 250.6511,
    "ARG_OF_PERICENTER": 66.4946,
    "MEAN_ANOMALY": 293.6569,
    "EPHEMERIS_TYPE": 0,
    "CLASSIFICATION_TYPE": "U",
    "NORAD_CAT_ID": 41877,
    "ELEMENT_SET_NO": 999,
    "REV_AT_EPOCH": 49558,
    "BSTAR": -0.0000091144,
    "MEAN_MOTION_DOT": -6.4e-7,
    "MEAN_MOTION_DDOT": 0
   }
  },
  {
   "norad": 29228,
   "name": "RESURS-DK 1",
   "intl": "2006-021A",
   "group": "resource",
   "gcat": {
    "class": null,
    "category": null,
    "owner": null,
    "state": null
   },
   "omm": {
    "OBJECT_NAME": "RESURS-DK 1",
    "OBJECT_ID": "2006-021A",
    "EPOCH": "2026-06-26T03:46:49.384992",
    "MEAN_MOTION": 15.13251602,
    "ECCENTRICITY": 0.0006743,
    "INCLINATION": 69.9337,
    "RA_OF_ASC_NODE": 316.333,
    "ARG_OF_PERICENTER": 287.6006,
    "MEAN_ANOMALY": 72.4424,
    "EPHEMERIS_TYPE": 0,
    "CLASSIFICATION_TYPE": "U",
    "NORAD_CAT_ID": 29228,
    "ELEMENT_SET_NO": 999,
    "REV_AT_EPOCH": 10393,
    "BSTAR": 0.00013662,
    "MEAN_MOTION_DOT": 0.00002327,
    "MEAN_MOTION_DDOT": 0
   }
  },
  {
   "norad": 59371,
   "name": "RESURS-P 4",
   "intl": "2024-061A",
   "group": "resource",
   "gcat": {
    "class": "C",
    "category": "IMG",
    "owner": "TSSKBP?",
    "state": "RU"
   },
   "omm": {
    "OBJECT_NAME": "RESURS-P 4",
    "OBJECT_ID": "2024-061A",
    "EPOCH": "2026-06-26T03:29:15.103680",
    "MEAN_MOTION": 15.32178714,
    "ECCENTRICITY": 0.000276,
    "INCLINATION": 97.2749,
    "RA_OF_ASC_NODE": 124.8879,
    "ARG_OF_PERICENTER": 116.6075,
    "MEAN_ANOMALY": 243.545,
    "EPHEMERIS_TYPE": 0,
    "CLASSIFICATION_TYPE": "U",
    "NORAD_CAT_ID": 59371,
    "ELEMENT_SET_NO": 999,
    "REV_AT_EPOCH": 12513,
    "BSTAR": 0.00010684,
    "MEAN_MOTION_DOT": 0.00003243,
    "MEAN_MOTION_DDOT": 0
   }
  },
  {
   "norad": 44233,
   "name": "RISAT-2B",
   "intl": "2019-028A",
   "group": "sar",
   "gcat": {
    "class": "C",
    "category": "IMG-R",
    "owner": "ISRO",
    "state": "IN"
   },
   "omm": {
    "OBJECT_NAME": "RISAT-2B",
    "OBJECT_ID": "2019-028A",
    "EPOCH": "2026-06-25T23:53:16.677024",
    "MEAN_MOTION": 15.01706027,
    "ECCENTRICITY": 0.0003729,
    "INCLINATION": 36.9977,
    "RA_OF_ASC_NODE": 301.8499,
    "ARG_OF_PERICENTER": 113.7154,
    "MEAN_ANOMALY": 246.3981,
    "EPHEMERIS_TYPE": 0,
    "CLASSIFICATION_TYPE": "U",
    "NORAD_CAT_ID": 44233,
    "ELEMENT_SET_NO": 999,
    "REV_AT_EPOCH": 38915,
    "BSTAR": 0.00028673,
    "MEAN_MOTION_DOT": 0.00003721,
    "MEAN_MOTION_DDOT": 0
   }
  },
  {
   "norad": 44857,
   "name": "RISAT-2BR1",
   "intl": "2019-089F",
   "group": "sar",
   "gcat": {
    "class": "C",
    "category": "IMG-R",
    "owner": "ISRO",
    "state": "IN"
   },
   "omm": {
    "OBJECT_NAME": "RISAT-2BR1",
    "OBJECT_ID": "2019-089F",
    "EPOCH": "2026-06-26T01:31:48.745632",
    "MEAN_MOTION": 15.01700471,
    "ECCENTRICITY": 0.0012989,
    "INCLINATION": 36.9608,
    "RA_OF_ASC_NODE": 58.9409,
    "ARG_OF_PERICENTER": 248.8145,
    "MEAN_ANOMALY": 111.1209,
    "EPHEMERIS_TYPE": 0,
    "CLASSIFICATION_TYPE": "U",
    "NORAD_CAT_ID": 44857,
    "ELEMENT_SET_NO": 999,
    "REV_AT_EPOCH": 35853,
    "BSTAR": 0.00027173,
    "MEAN_MOTION_DOT": 0.00003528,
    "MEAN_MOTION_DDOT": 0
   }
  },
  {
   "norad": 46905,
   "name": "RISAT-2BR2",
   "intl": "2020-081A",
   "group": "sar",
   "gcat": {
    "class": "C",
    "category": "IMG-R",
    "owner": "ISRO",
    "state": "IN"
   },
   "omm": {
    "OBJECT_NAME": "RISAT-2BR2",
    "OBJECT_ID": "2020-081A",
    "EPOCH": "2026-06-26T04:36:16.862976",
    "MEAN_MOTION": 15.01655881,
    "ECCENTRICITY": 0.0011971,
    "INCLINATION": 36.8971,
    "RA_OF_ASC_NODE": 170.8007,
    "ARG_OF_PERICENTER": 237.607,
    "MEAN_ANOMALY": 122.3513,
    "EPHEMERIS_TYPE": 0,
    "CLASSIFICATION_TYPE": "U",
    "NORAD_CAT_ID": 46905,
    "ELEMENT_SET_NO": 999,
    "REV_AT_EPOCH": 30882,
    "BSTAR": 0.00014413,
    "MEAN_MOTION_DOT": 0.00001832,
    "MEAN_MOTION_DDOT": 0
   }
  }
 ]
}
